[{"OBJECT_NAME":"STARLINK-5285","OBJECT_ID":"2023-010AD","EPOCH":"2026-03-09T21:36:57.639168","MEAN_MOTION":14.98339026,"ECCENTRICITY":0.00018655,"INCLINATION":70.0037,"RA_OF_ASC_NODE":23.8112,"ARG_OF_PERICENTER":262.0351,"MEAN_ANOMALY":98.0597,"EPHEMERIS_TYPE":0,"CLASSIFICATION_TYPE":"U","NORAD_CAT_ID":55296,"ELEMENT_SET_NO":999,"REV_AT_EPOCH":17418,"BSTAR":-5.6290354e-5,"MEAN_MOTION_DOT":-7.64e-6,"MEAN_MOTION_DDOT":0},{"OBJECT_NAME":"RAPIDEYE 5","OBJECT_ID":"2008-040B","EPOCH":"2026-03-09T15:17:22.403904","MEAN_MOTION":15.02179038,"ECCENTRICITY":0.0014834,"INCLINATION":97.3944,"RA_OF_ASC_NODE":91.3825,"ARG_OF_PERICENTER":86.9831,"MEAN_ANOMALY":273.3091,"EPHEMERIS_TYPE":0,"CLASSIFICATION_TYPE":"U","NORAD_CAT_ID":33313,"ELEMENT_SET_NO":999,"REV_AT_EPOCH":95055,"BSTAR":0.00014028,"MEAN_MOTION_DOT":1.794e-5,"MEAN_MOTION_DDOT":0}]
